{
  "type": "FeatureCollection",
  "generator": "overpass-turbo",
  "copyright": "The data included in this document is from www.openstreetmap.org. The data is made available under ODbL.",
  "timestamp": "2016-05-21T09:00:00Z",
  "features": [
    {
      "type": "Feature",
      "id": "node/1305101371",
      "properties": {
        "@id": "node/1305101371",
        "amenity": "fast_food",
        "cuisine": "burger",
        "internet_access": "wlan",
        "internet_access:fee": "yes",
        "name": "McDonald's",
        "opening_hours": "24/7",
        "operator": "麥當勞"
      },
      "geometry": {
        "type": "Point",
        "coordinates": [
          120.2848941,
          22.6252159
        ]
      }
    },
    {
      "type": "Feature",
      "id": "node/2083042865",
      "properties": {
        "@id": "node/2083042865",
        "amenity": "ferry_terminal",
        "name": "駁二碼頭"
      },
      "geometry": {
        "type": "Point",
        "coordinates": [
          120.2813301,
          22.6193592
        ]
      }
    },
    {
      "type": "Feature",
      "id": "node/2131737624",
      "properties": {
        "@id": "node/2131737624",
        "amenity": "restaurant",
        "name": "香蕉碼頭海景餐廳"
      },
      "geometry": {
        "type": "Point",
        "coordinates": [
          120.2785765,
          22.6183336
        ]
      }
    },
    {
      "type": "Feature",
      "id": "node/2150333369",
      "properties": {
        "@id": "node/2150333369",
        "amenity": "police",
        "name": "三號碼頭派出所"
      },
      "geometry": {
        "type": "Point",
        "coordinates": [
          120.278862,
          22.6196092
        ]
      }
    },
    {
      "type": "Feature",
      "id": "node/2150333532",
      "properties": {
        "@id": "node/2150333532",
        "amenity": "police",
        "name": "高雄港警察局"
      },
      "geometry": {
        "type": "Point",
        "coordinates": [
          120.2787121,
          22.6191193
        ]
      }
    },
    {
      "type": "Feature",
      "id": "node/2265587618",
      "properties": {
        "@id": "node/2265587618",
        "addr:full": "高雄市鹽埕區河濱里五福四路107號",
        "amenity": "police",
        "name": "五福四路派出所",
        "phone": "+886-7-5512968"
      },
      "geometry": {
        "type": "Point",
        "coordinates": [
          120.2852051,
          22.6225987
        ]
      }
    },
    {
      "type": "Feature",
      "id": "node/2265659030",
      "properties": {
        "@id": "node/2265659030",
        "amenity": "restaurant",
        "cuisine": "italian",
        "name": "Pinguo Pinguo",
        "wheelchair": "limited"
      },
      "geometry": {
        "type": "Point",
        "coordinates": [
          120.2833269,
          22.6261972
        ]
      }
    },
    {
      "type": "Feature",
      "id": "node/2265659042",
      "properties": {
        "@id": "node/2265659042",
        "amenity": "post_box",
        "brand": "中華郵政",
        "brand:en": "Chunghwa Post",
        "brand:zh": "中華郵政",
        "collection_times": "Mo-Fr 12:36, 17:56",
        "operator": "中華郵政",
        "operator:en": "Chunghwa Post",
        "operator:zh": "中華郵政",
        "postal_code": "803"
      },
      "geometry": {
        "type": "Point",
        "coordinates": [
          120.2822816,
          22.6243564
        ]
      }
    },
    {
      "type": "Feature",
      "id": "node/2265659045",
      "properties": {
        "@id": "node/2265659045",
        "addr:country": "TW",
        "amenity": "bank",
        "opening_hours": "Mo-Fr 09:00-15:30",
        "operator": "三信商業銀行"
      },
      "geometry": {
        "type": "Point",
        "coordinates": [
          120.283032,
          22.6260855
        ]
      }
    },
    {
      "type": "Feature",
      "id": "node/2265659047",
      "properties": {
        "@id": "node/2265659047",
        "amenity": "restaurant",
        "cuisine": "chinese",
        "name": "陶湘火鍋店",
        "opening_hours": "11:00-14:00, 17:00-22:00"
      },
      "geometry": {
        "type": "Point",
        "coordinates": [
          120.2827097,
          22.6241496
        ]
      }
    },
    {
      "type": "Feature",
      "id": "node/2265659048",
      "properties": {
        "@id": "node/2265659048",
        "amenity": "restaurant",
        "contact:phone": "+886-7-5211388",
        "cuisine": "burger",
        "name": "飛碟漢堡",
        "wheelchair": "limited"
      },
      "geometry": {
        "type": "Point",
        "coordinates": [
          120.2833609,
          22.6261884
        ]
      }
    },
    {
      "type": "Feature",
      "id": "node/2265882453",
      "properties": {
        "@id": "node/2265882453",
        "addr:housenumber": "133",
        "addr:street": "瀨南街",
        "amenity": "pharmacy",
        "name": "宏恩藥局"
      },
      "geometry": {
        "type": "Point",
        "coordinates": [
          120.282329,
          22.6247444
        ]
      }
    },
    {
      "type": "Feature",
      "id": "node/2265882465",
      "properties": {
        "@id": "node/2265882465",
        "amenity": "restaurant",
        "cuisine": "chinese",
        "name": "香港馬興記燒臘臘味專賣店"
      },
      "geometry": {
        "type": "Point",
        "coordinates": [
          120.2850782,
          22.6241542
        ]
      }
    },
    {
      "type": "Feature",
      "id": "node/2265882530",
      "properties": {
        "@id": "node/2265882530",
        "amenity": "fountain"
      },
      "geometry": {
        "type": "Point",
        "coordinates": [
          120.285418,
          22.6256493
        ]
      }
    },
    {
      "type": "Feature",
      "id": "node/2265882539",
      "properties": {
        "@id": "node/2265882539",
        "amenity": "bench"
      },
      "geometry": {
        "type": "Point",
        "coordinates": [
          120.2839492,
          22.625887
        ]
      }
    },
    {
      "type": "Feature",
      "id": "node/2265882540",
      "properties": {
        "@id": "node/2265882540",
        "amenity": "bench",
        "bench": "yes",
        "bus": "yes",
        "highway": "bus_stop",
        "name": "三山國王廟站",
        "network": "高雄市公車",
        "operator": "高雄市公車",
        "public_transport": "platform",
        "ref": "1140",
        "shelter": "no"
      },
      "geometry": {
        "type": "Point",
        "coordinates": [
          120.283902,
          22.625957
        ]
      }
    },
    {
      "type": "Feature",
      "id": "node/2265882544",
      "properties": {
        "@id": "node/2265882544",
        "amenity": "bench"
      },
      "geometry": {
        "type": "Point",
        "coordinates": [
          120.2839033,
          22.6259268
        ]
      }
    },
    {
      "type": "Feature",
      "id": "node/2265882545",
      "properties": {
        "@id": "node/2265882545",
        "amenity": "bench"
      },
      "geometry": {
        "type": "Point",
        "coordinates": [
          120.283862,
          22.6259285
        ]
      }
    },
    {
      "type": "Feature",
      "id": "node/2265882549",
      "properties": {
        "@id": "node/2265882549",
        "amenity": "bench"
      },
      "geometry": {
        "type": "Point",
        "coordinates": [
          120.2838363,
          22.6259438
        ]
      }
    },
    {
      "type": "Feature",
      "id": "node/2272785395",
      "properties": {
        "@id": "node/2272785395",
        "addr:city": "高雄市",
        "addr:country": "TW",
        "addr:housenumber": "157",
        "addr:postcode": "803",
        "addr:street": "瀨南街",
        "amenity": "doctors",
        "name": "德利中醫診所",
        "opening_hours": "Mo-Sa 09:00-12:00, 15:00-18:00, 19:00-21:00; Su off"
      },
      "geometry": {
        "type": "Point",
        "coordinates": [
          120.282794,
          22.6255463
        ]
      }
    },
    {
      "type": "Feature",
      "id": "node/2272785410",
      "properties": {
        "@id": "node/2272785410",
        "amenity": "telephone",
        "payment:coins": "yes",
        "payment:telephone_cards": "yes"
      },
      "geometry": {
        "type": "Point",
        "coordinates": [
          120.2831926,
          22.6260595
        ]
      }
    },
    {
      "type": "Feature",
      "id": "node/2283987160",
      "properties": {
        "@id": "node/2283987160",
        "addr:city": "高雄市",
        "addr:housenumber": "160",
        "addr:postcode": "803",
        "addr:street": "莒光街",
        "amenity": "restaurant",
        "cuisine": "sandwich",
        "name": "安順早午餐"
      },
      "geometry": {
        "type": "Point",
        "coordinates": [
          120.2847313,
          22.6235061
        ]
      }
    },
    {
      "type": "Feature",
      "id": "node/2283987163",
      "properties": {
        "@id": "node/2283987163",
        "addr:city": "高雄市",
        "addr:housenumber": "8",
        "addr:postcode": "803",
        "addr:street": "大勇路",
        "amenity": "restaurant",
        "cuisine": "chinese",
        "name": "平津涮牛肉",
        "opening_hours": "11:00-14:00, 17:00-21:00"
      },
      "geometry": {
        "type": "Point",
        "coordinates": [
          120.2843288,
          22.6236588
        ]
      }
    },
    {
      "type": "Feature",
      "id": "node/2283987191",
      "properties": {
        "@id": "node/2283987191",
        "addr:city": "高雄市",
        "addr:housenumber": "67",
        "addr:postcode": "803",
        "addr:street": "大仁路",
        "amenity": "gambling",
        "gambling": "lottery"
      },
      "geometry": {
        "type": "Point",
        "coordinates": [
          120.2851538,
          22.6251569
        ]
      }
    },
    {
      "type": "Feature",
      "id": "node/2283987214",
      "properties": {
        "@id": "node/2283987214",
        "amenity": "restaurant",
        "contact:phone": "+886-7-5331129",
        "cuisine": "sandwich",
        "name": "朵菈鹽埕捷運店"
      },
      "geometry": {
        "type": "Point",
        "coordinates": [
          120.285011,
          22.6240428
        ]
      }
    },
    {
      "type": "Feature",
      "id": "node/2283987250",
      "properties": {
        "@id": "node/2283987250",
        "amenity": "gambling",
        "gambling": "lottery"
      },
      "geometry": {
        "type": "Point",
        "coordinates": [
          120.2847111,
          22.6237187
        ]
      }
    },
    {
      "type": "Feature",
      "id": "node/2283987267",
      "properties": {
        "@id": "node/2283987267",
        "amenity": "telephone"
      },
      "geometry": {
        "type": "Point",
        "coordinates": [
          120.2854512,
          22.6253156
        ]
      }
    },
    {
      "type": "Feature",
      "id": "node/2283987273",
      "properties": {
        "@id": "node/2283987273",
        "amenity": "telephone",
        "payment:telephone_cards": "yes"
      },
      "geometry": {
        "type": "Point",
        "coordinates": [
          120.2847472,
          22.6256349
        ]
      }
    },
    {
      "type": "Feature",
      "id": "node/2283987276",
      "properties": {
        "@id": "node/2283987276",
        "amenity": "post_box",
        "brand": "中華郵政",
        "brand:en": "Chunghwa Post",
        "brand:zh": "中華郵政",
        "collection_times": "09:42-09:52",
        "is_in": "高雄市鹽埕區",
        "operator": "中華郵政",
        "operator:en": "Chunghwa Post",
        "operator:zh": "中華郵政",
        "postal_code": "803"
      },
      "geometry": {
        "type": "Point",
        "coordinates": [
          120.2848975,
          22.6258312
        ]
      }
    },
    {
      "type": "Feature",
      "id": "node/2283987292",
      "properties": {
        "@id": "node/2283987292",
        "amenity": "cramschool",
        "contact:phone": "+886-7-5611789",
        "name": "謝老師升學文理補習班"
      },
      "geometry": {
        "type": "Point",
        "coordinates": [
          120.2850355,
          22.6240292
        ]
      }
    },
    {
      "type": "Feature",
      "id": "node/2283987306",
      "properties": {
        "@id": "node/2283987306",
        "amenity": "restaurant",
        "cuisine": "chinese",
        "name": "麵子粉大",
        "opening_hours": "11:00-14:00, 17:00-20:00"
      },
      "geometry": {
        "type": "Point",
        "coordinates": [
          120.2851401,
          22.6242777
        ]
      }
    },
    {
      "type": "Feature",
      "id": "node/2410670334",
      "properties": {
        "@id": "node/2410670334",
        "amenity": "restaurant",
        "name": "米糕城"
      },
      "geometry": {
        "type": "Point",
        "coordinates": [
          120.2842423,
          22.6255858
        ]
      }
    },
    {
      "type": "Feature",
      "id": "node/2410670337",
      "properties": {
        "@id": "node/2410670337",
        "amenity": "restaurant",
        "name": "三山國王廟虱目魚米粉"
      },
      "geometry": {
        "type": "Point",
        "coordinates": [
          120.2842768,
          22.6261334
        ]
      }
    },
    {
      "type": "Feature",
      "id": "node/2410753508",
      "properties": {
        "@id": "node/2410753508",
        "amenity": "bank",
        "atm": "yes",
        "name": "華南銀行"
      },
      "geometry": {
        "type": "Point",
        "coordinates": [
          120.2834804,
          22.6237668
        ]
      }
    },
    {
      "type": "Feature",
      "id": "node/2512798431",
      "properties": {
        "@id": "node/2512798431",
        "amenity": "post_box"
      },
      "geometry": {
        "type": "Point",
        "coordinates": [
          120.2842955,
          22.6231444
        ]
      }
    },
    {
      "type": "Feature",
      "id": "node/2534984904",
      "properties": {
        "@id": "node/2534984904",
        "amenity": "restaurant",
        "cuisine": "chinese",
        "name": "老宋牛肉麵"
      },
      "geometry": {
        "type": "Point",
        "coordinates": [
          120.2848512,
          22.6230717
        ]
      }
    },
    {
      "type": "Feature",
      "id": "node/2578419964",
      "properties": {
        "@id": "node/2578419964",
        "amenity": "bicycle_rental",
        "name": "漁人碼頭站",
        "network": "City_Bike",
        "note": "漁人碼頭Fishermen’sWharf（七賢三路底高雄港務警察局對面)●無人自動租賃站來源引用-高雄市政府工務局",
        "operator": "KRTC",
        "ref": "0005"
      },
      "geometry": {
        "type": "Point",
        "coordinates": [
          120.278621,
          22.618799
        ]
      }
    },
    {
      "type": "Feature",
      "id": "node/2578420005",
      "properties": {
        "@id": "node/2578420005",
        "amenity": "bicycle_rental",
        "name": "鹽埕埔站",
        "network": "City_Bike",
        "note": "O1鹽埕埔站-1號出口",
        "operator": "KRTC",
        "ref": "0043"
      },
      "geometry": {
        "type": "Point",
        "coordinates": [
          120.283159,
          22.6225874
        ]
      }
    },
    {
      "type": "Feature",
      "id": "node/2701308537",
      "properties": {
        "@id": "node/2701308537",
        "amenity": "toilets"
      },
      "geometry": {
        "type": "Point",
        "coordinates": [
          120.2821191,
          22.6190706
        ]
      }
    },
    {
      "type": "Feature",
      "id": "node/2701308554",
      "properties": {
        "@id": "node/2701308554",
        "amenity": "toilets"
      },
      "geometry": {
        "type": "Point",
        "coordinates": [
          120.2814544,
          22.6201042
        ]
      }
    },
    {
      "type": "Feature",
      "id": "node/2766406367",
      "properties": {
        "@id": "node/2766406367",
        "amenity": "bicycle_rental",
        "description": "鹽埕海霸王飯店後方，必信街與大義街口",
        "image": "http://www.c-bike.com.tw/Uploads/nopic.png",
        "name": "高雄真愛館站",
        "network": "City_Bike",
        "operator": "KRTC",
        "ref": "0160",
        "website": "http://www.c-bike.com.tw/"
      },
      "geometry": {
        "type": "Point",
        "coordinates": [
          120.284972,
          22.619285
        ]
      }
    },
    {
      "type": "Feature",
      "id": "node/2929199376",
      "properties": {
        "@id": "node/2929199376",
        "amenity": "restaurant",
        "cuisine": "regional",
        "name": "阿進切仔麵",
        "opening_hours": "08:00-21:00"
      },
      "geometry": {
        "type": "Point",
        "coordinates": [
          120.2825662,
          22.6248752
        ]
      }
    },
    {
      "type": "Feature",
      "id": "node/3092600534",
      "properties": {
        "@id": "node/3092600534",
        "addr:city": "高雄市",
        "addr:housenumber": "123",
        "addr:postcode": "803",
        "addr:street": "七賢三路",
        "amenity": "coworking_space",
        "fee": "yes",
        "name": "高雄數位內容創意中心",
        "name:en": "Digital Art Koushiung United Office",
        "website": "https://www.facebook.com/Dakuo.kh"
      },
      "geometry": {
        "type": "Point",
        "coordinates": [
          120.2816123,
          22.6260048
        ]
      }
    },
    {
      "type": "Feature",
      "id": "node/3092600535",
      "properties": {
        "@id": "node/3092600535",
        "addr:city": "高雄市",
        "addr:district": "鹽埕區",
        "addr:housenumber": "80",
        "addr:street": "大勇路",
        "amenity": "restaurant",
        "cuisine": "sandwich",
        "name": "MARS睦工場",
        "tourism": "hotel"
      },
      "geometry": {
        "type": "Point",
        "coordinates": [
          120.2841722,
          22.6240184
        ]
      }
    },
    {
      "type": "Feature",
      "id": "node/3092600607",
      "properties": {
        "@id": "node/3092600607",
        "amenity": "restaurant",
        "cuisine": "hong_kong",
        "name": "發財小館"
      },
      "geometry": {
        "type": "Point",
        "coordinates": [
          120.2819264,
          22.6255173
        ]
      }
    },
    {
      "type": "Feature",
      "id": "node/3092600610",
      "properties": {
        "@id": "node/3092600610",
        "amenity": "restaurant",
        "cuisine": "regional",
        "name": "鴨肉珍"
      },
      "geometry": {
        "type": "Point",
        "coordinates": [
          120.2807868,
          22.6260063
        ]
      }
    },
    {
      "type": "Feature",
      "id": "node/3768776658",
      "properties": {
        "@id": "node/3768776658",
        "amenity": "bank",
        "name": "花旗銀行"
      },
      "geometry": {
        "type": "Point",
        "coordinates": [
          120.2849981,
          22.6227039
        ]
      }
    },
    {
      "type": "Feature",
      "id": "node/3973932907",
      "properties": {
        "@id": "node/3973932907",
        "amenity": "cafe",
        "name": "Lab駁二"
      },
      "geometry": {
        "type": "Point",
        "coordinates": [
          120.2851941,
          22.6185583
        ]
      }
    },
    {
      "type": "Feature",
      "id": "node/3973932908",
      "properties": {
        "@id": "node/3973932908",
        "amenity": "restaurant",
        "name": "Now&Then"
      },
      "geometry": {
        "type": "Point",
        "coordinates": [
          120.2855277,
          22.6181387
        ]
      }
    },
    {
      "type": "Feature",
      "id": "node/3973932933",
      "properties": {
        "@id": "node/3973932933",
        "amenity": "toilets"
      },
      "geometry": {
        "type": "Point",
        "coordinates": [
          120.2855671,
          22.6188893
        ]
      }
    },
    {
      "type": "Feature",
      "id": "node/3973932941",
      "properties": {
        "@id": "node/3973932941",
        "amenity": "restaurant",
        "name": "典藏駁二餐廳"
      },
      "geometry": {
        "type": "Point",
        "coordinates": [
          120.2848147,
          22.6184798
        ]
      }
    }
  ]
}